{
  "type": "FeatureCollection",
  "features": [
    {
      "type": "Feature",
      "properties": {
        "norad_id": 55973,
        "name": "TIANMU-1 03",
        "group": "weather",
        "lat": 66.05711571500606,
        "lon": 143.14986945249174,
        "alt_km": 433.95323635537716,
        "timestamp": "2025-12-23T11:34:47.828823+00:00",
        "meta_object_name": "TIANMU-1 03",
        "meta_object_id": "2023-039A",
        "meta_epoch": "2025-12-23T05:03:24.384960",
        "meta_mean_motion": 15.41216606,
        "meta_eccentricity": 0.0003893,
        "meta_inclination": 97.5111,
        "meta_ra_of_asc_node": 160.1567,
        "meta_arg_of_pericenter": 31.3002,
        "meta_mean_anomaly": 328.8475,
        "meta_ephemeris_type": 0,
        "meta_classification_type": "U",
        "meta_norad_cat_id": 55973,
        "meta_element_set_no": 999,
        "meta_rev_at_epoch": 15367,
        "meta_bstar": 0.00040519,
        "meta_mean_motion_dot": 0.00016759,
        "meta_mean_motion_ddot": 0,
        "tle_line1": "1 55973U 23039A   25357.21069890  .00016759  00000+0  40519-3 0  9992",
        "tle_line2": "2 55973  97.5111 160.1567 0003893  31.3002 328.8475 15.41216606153674"
      },
      "geometry": {
        "type": "Point",
        "coordinates": [
          143.14986945249174,
          66.05711571500606
        ]
      }
    },
    {
      "type": "Feature",
      "properties": {
        "norad_id": 55974,
        "name": "TIANMU-1 04",
        "group": "weather",
        "lat": -14.305421255064953,
        "lon": -22.303469088307665,
        "alt_km": 449.282732088398,
        "timestamp": "2025-12-23T11:34:47.828838+00:00",
        "meta_object_name": "TIANMU-1 04",
        "meta_object_id": "2023-039B",
        "meta_epoch": "2025-12-23T04:30:29.788128",
        "meta_mean_motion": 15.41558418,
        "meta_eccentricity": 0.0004503,
        "meta_inclination": 97.5042,
        "meta_ra_of_asc_node": 159.32,
        "meta_arg_of_pericenter": 24.3922,
        "meta_mean_anomaly": 335.7536,
        "meta_ephemeris_type": 0,
        "meta_classification_type": "U",
        "meta_norad_cat_id": 55974,
        "meta_element_set_no": 999,
        "meta_rev_at_epoch": 15367,
        "meta_bstar": 0.00040888,
        "meta_mean_motion_dot": 0.00017108,
        "meta_mean_motion_ddot": 0,
        "tle_line1": "1 55974U 23039B   25357.18784477  .00017108  00000+0  40888-3 0  9992",
        "tle_line2": "2 55974  97.5042 159.3200 0004503  24.3922 335.7536 15.41558418153679"
      },
      "geometry": {
        "type": "Point",
        "coordinates": [
          -22.303469088307665,
          -14.305421255064953
        ]
      }
    },
    {
      "type": "Feature",
      "properties": {
        "norad_id": 55975,
        "name": "TIANMU-1 05",
        "group": "weather",
        "lat": -31.256414304189473,
        "lon": -24.47641537689254,
        "alt_km": 451.36905962914716,
        "timestamp": "2025-12-23T11:34:47.828855+00:00",
        "meta_object_name": "TIANMU-1 05",
        "meta_object_id": "2023-039C",
        "meta_epoch": "2025-12-23T04:25:56.675136",
        "meta_mean_motion": 15.41172951,
        "meta_eccentricity": 0.0004021,
        "meta_inclination": 97.5089,
        "meta_ra_of_asc_node": 159.8096,
        "meta_arg_of_pericenter": 49.738,
        "meta_mean_anomaly": 310.4217,
        "meta_ephemeris_type": 0,
        "meta_classification_type": "U",
        "meta_norad_cat_id": 55975,
        "meta_element_set_no": 999,
        "meta_rev_at_epoch": 15365,
        "meta_bstar": 0.00040569,
        "meta_mean_motion_dot": 0.00016756,
        "meta_mean_motion_ddot": 0,
        "tle_line1": "1 55975U 23039C   25357.18468374  .00016756  00000+0  40569-3 0  9992",
        "tle_line2": "2 55975  97.5089 159.8096 0004021  49.7380 310.4217 15.41172951153651"
      },
      "geometry": {
        "type": "Point",
        "coordinates": [
          -24.47641537689254,
          -31.256414304189473
        ]
      }
    },
    {
      "type": "Feature",
      "properties": {
        "norad_id": 55976,
        "name": "TIANMU-1 06",
        "group": "weather",
        "lat": -4.362597977481934,
        "lon": -19.98704072050032,
        "alt_km": 447.281230321345,
        "timestamp": "2025-12-23T11:34:47.828871+00:00",
        "meta_object_name": "TIANMU-1 06",
        "meta_object_id": "2023-039D",
        "meta_epoch": "2025-12-23T04:33:07.474176",
        "meta_mean_motion": 15.41609647,
        "meta_eccentricity": 0.0004279,
        "meta_inclination": 97.5099,
        "meta_ra_of_asc_node": 160.2884,
        "meta_arg_of_pericenter": 43.8174,
        "meta_mean_anomaly": 316.3411,
        "meta_ephemeris_type": 0,
        "meta_classification_type": "U",
        "meta_norad_cat_id": 55976,
        "meta_element_set_no": 999,
        "meta_rev_at_epoch": 15367,
        "meta_bstar": 0.00040551,
        "meta_mean_motion_dot": 0.00016995,
        "meta_mean_motion_ddot": 0,
        "tle_line1": "1 55976U 23039D   25357.18966984  .00016995  00000+0  40551-3 0  9999",
        "tle_line2": "2 55976  97.5099 160.2884 0004279  43.8174 316.3411 15.41609647153675"
      },
      "geometry": {
        "type": "Point",
        "coordinates": [
          -19.98704072050032,
          -4.362597977481934
        ]
      }
    },
    {
      "type": "Feature",
      "properties": {
        "norad_id": 56232,
        "name": "FENGYUN 3G",
        "group": "weather",
        "lat": 45.66797381200553,
        "lon": -67.29901092056608,
        "alt_km": 397.39213121047396,
        "timestamp": "2025-12-23T11:34:47.828886+00:00",
        "meta_object_name": "FENGYUN 3G",
        "meta_object_id": "2023-055A",
        "meta_epoch": "2025-12-23T00:18:13.416192",
        "meta_mean_motion": 15.54230372,
        "meta_eccentricity": 0.000928,
        "meta_inclination": 49.9923,
        "meta_ra_of_asc_node": 174.4174,
        "meta_arg_of_pericenter": 194.6693,
        "meta_mean_anomaly": 165.4007,
        "meta_ephemeris_type": 0,
        "meta_classification_type": "U",
        "meta_norad_cat_id": 56232,
        "meta_element_set_no": 999,
        "meta_rev_at_epoch": 15262,
        "meta_bstar": 0.00048841,
        "meta_mean_motion_dot": 0.00032207,
        "meta_mean_motion_ddot": 0,
        "tle_line1": "1 56232U 23055A   25357.01265528  .00032207  00000+0  48841-3 0  9995",
        "tle_line2": "2 56232  49.9923 174.4174 0009280 194.6693 165.4007 15.54230372152622"
      },
      "geometry": {
        "type": "Point",
        "coordinates": [
          -67.29901092056608,
          45.66797381200553
        ]
      }
    },
    {
      "type": "Feature",
      "properties": {
        "norad_id": 57166,
        "name": "METEOR-M2 3",
        "group": "weather",
        "lat": -28.479232455627464,
        "lon": -133.89581572705904,
        "alt_km": 819.0107490417604,
        "timestamp": "2025-12-23T11:34:47.828904+00:00",
        "meta_object_name": "METEOR-M2 3",
        "meta_object_id": "2023-091A",
        "meta_epoch": "2025-12-23T05:32:37.001184",
        "meta_mean_motion": 14.24027319,
        "meta_eccentricity": 0.0003342,
        "meta_inclination": 98.6363,
        "meta_ra_of_asc_node": 50.5864,
        "meta_arg_of_pericenter": 336.6042,
        "meta_mean_anomaly": 23.4984,
        "meta_ephemeris_type": 0,
        "meta_classification_type": "U",
        "meta_norad_cat_id": 57166,
        "meta_element_set_no": 999,
        "meta_rev_at_epoch": 12947,
        "meta_bstar": 2.6759e-05,
        "meta_mean_motion_dot": 1.8e-07,
        "meta_mean_motion_ddot": 0,
        "tle_line1": "1 57166U 23091A   25357.23098381  .00000018  00000+0  26759-4 0  9997",
        "tle_line2": "2 57166  98.6363  50.5864 0003342 336.6042  23.4984 14.24027319129472"
      },
      "geometry": {
        "type": "Point",
        "coordinates": [
          -133.89581572705904,
          -28.479232455627464
        ]
      }
    },
    {
      "type": "Feature",
      "properties": {
        "norad_id": 57399,
        "name": "TIANMU-1 07",
        "group": "weather",
        "lat": 80.78545344176192,
        "lon": -80.8449363306897,
        "alt_km": 471.10876197946527,
        "timestamp": "2025-12-23T11:34:47.828920+00:00",
        "meta_object_name": "TIANMU-1 07",
        "meta_object_id": "2023-101A",
        "meta_epoch": "2025-12-23T04:52:38.996832",
        "meta_mean_motion": 15.28214113,
        "meta_eccentricity": 0.0005122,
        "meta_inclination": 97.2857,
        "meta_ra_of_asc_node": 46.8223,
        "meta_arg_of_pericenter": 54.9461,
        "meta_mean_anomaly": 305.2259,
        "meta_ephemeris_type": 0,
        "meta_classification_type": "U",
        "meta_norad_cat_id": 57399,
        "meta_element_set_no": 999,
        "meta_rev_at_epoch": 13475,
        "meta_bstar": 0.00029942,
        "meta_mean_motion_dot": 8.164e-05,
        "meta_mean_motion_ddot": 0,
        "tle_line1": "1 57399U 23101A   25357.20322913  .00008164  00000+0  29942-3 0  9991",
        "tle_line2": "2 57399  97.2857  46.8223 0005122  54.9461 305.2259 15.28214113134751"
      },
      "geometry": {
        "type": "Point",
        "coordinates": [
          -80.8449363306897,
          80.78545344176192
        ]
      }
    }
  ]
}